{"type": "FeatureCollection", "features": [ {"type": "Feature", "properties": {"norad_id": 30411, "name": "FENGYUN 1C DEB", "group": "fengyun-1c-debris", "lat": -67.38366683001517, "lon": -82.85051294770867, "alt_km": 963.4846929189043, "timestamp": "2025-12-11T05:00:26.584914+00:00", "meta": {"OBJECT_NAME": "FENGYUN 1C DEB", "OBJECT_ID": "1999-025AEA", "EPOCH": "2025-12-10T17:23:57.211872", "MEAN_MOTION": 14.07629207, "ECCENTRICITY": 0.01225037, "INCLINATION": 98.5818, "RA_OF_ASC_NODE": 255.4374, "ARG_OF_PERICENTER": 112.2634, "MEAN_ANOMALY": 249.1581, "EPHEMERIS_TYPE": 0, "CLASSIFICATION_TYPE": "U", "NORAD_CAT_ID": 30411, "ELEMENT_SET_NO": 999, "REV_AT_EPOCH": 95955, "BSTAR": 0.0021091969, "MEAN_MOTION_DOT": 3.776e-05, "MEAN_MOTION_DDOT": 0}, "tle": {"line1": "1 30411U 99025AEA 25344.72496773  .00003776  00000+0  21092-2 0  9995", "line2": "2 30411  98.5818 255.4374 0122503 112.2634 249.1581 14.07629207959553"}}, "geometry": {"type": "Point", "coordinates": [-82.85051294770867, -67.38366683001517]}}, {"type": "Feature", "properties": {"norad_id": 30413, "name": "FENGYUN 1C DEB", "group": "fengyun-1c-debris", "lat": -6.53657968984537, "lon": 36.10412419193647, "alt_km": 760.0125180917503, "timestamp": "2025-12-11T05:00:26.584925+00:00", "meta": {"OBJECT_NAME": "FENGYUN 1C DEB", "OBJECT_ID": "1999-025AEC", "EPOCH": "2025-12-10T11:56:20.155200", "MEAN_MOTION": 14.3249455, "ECCENTRICITY": 0.00455228, "INCLINATION": 102.0618, "RA_OF_ASC_NODE": 216.5222, "ARG_OF_PERICENTER": 222.7559, "MEAN_ANOMALY": 258.3655, "EPHEMERIS_TYPE": 0, "CLASSIFICATION_TYPE": "U", "NORAD_CAT_ID": 30413, "ELEMENT_SET_NO": 999, "REV_AT_EPOCH": 97107, "BSTAR": 0.0032225696, "MEAN_MOTION_DOT": 8.773e-05, "MEAN_MOTION_DDOT": 0}, "tle": {"line1": "1 30413U 99025AEC 25344.49745550  .00008773  00000+0  32226-2 0  9994", "line2": "2 30413 102.0618 216.5222 0045522 222.7559 258.3655 14.32494550971076"}}, "geometry": {"type": "Point", "coordinates": [36.10412419193647, -6.53657968984537]}}, {"type": "Feature", "properties": {"norad_id": 30414, "name": "FENGYUN 1C DEB", "group": "fengyun-1c-debris", "lat": -80.43800295607582, "lon": -109.31533484862294, "alt_km": 773.3891745854398, "timestamp": "2025-12-11T05:00:26.584935+00:00", "meta": {"OBJECT_NAME": "FENGYUN 1C DEB", "OBJECT_ID": "1999-025AED", "EPOCH": "2025-12-10T21:04:13.660896", "MEAN_MOTION": 14.34112937, "ECCENTRICITY": 0.00583748, "INCLINATION": 99.0808, "RA_OF_ASC_NODE": 142.0353, "ARG_OF_PERICENTER": 194.2151, "MEAN_ANOMALY": 165.7392, "EPHEMERIS_TYPE": 0, "CLASSIFICATION_TYPE": "U", "NORAD_CAT_ID": 30414, "ELEMENT_SET_NO": 999, "REV_AT_EPOCH": 97060, "BSTAR": 0.0041310317, "MEAN_MOTION_DOT": 0.00011754, "MEAN_MOTION_DDOT": 0}, "tle": {"line1": "1 30414U 99025AED 25344.87793589  .00011754  00000+0  41310-2 0  9999", "line2": "2 30414  99.0808 142.0353 0058374 194.2151 165.7392 14.34112937970606"}}, "geometry": {"type": "Point", "coordinates": [-109.31533484862294, -80.43800295607582]}}, {"type": "Feature", "properties": {"norad_id": 30415, "name": "FENGYUN 1C DEB", "group": "fengyun-1c-debris", "lat": -8.544250739123541, "lon": 46.918101537778746, "alt_km": 967.4291083883472, "timestamp": "2025-12-11T05:00:26.584945+00:00", "meta": {"OBJECT_NAME": "FENGYUN 1C DEB", "OBJECT_ID": "1999-025AEE", "EPOCH": "2025-12-10T09:50:09.121056", "MEAN_MOTION": 13.68925916, "ECCENTRICITY": 0.02383681, "INCLINATION": 99.6458, "RA_OF_ASC_NODE": 44.6545, "ARG_OF_PERICENTER": 275.2543, "MEAN_ANOMALY": 98.9202, "EPHEMERIS_TYPE": 0, "CLASSIFICATION_TYPE": "U", "NORAD_CAT_ID": 30415, "ELEMENT_SET_NO": 999, "REV_AT_EPOCH": 93846, "BSTAR": 0.0017368588, "MEAN_MOTION_DOT": 1.781e-05, "MEAN_MOTION_DDOT": 0}, "tle": {"line1": "1 30415U 99025AEE 25344.40982779  .00001781  00000+0  17369-2 0  9996", "line2": "2 30415  99.6458  44.6545 0238368 275.2543  98.9202 13.68925916938462"}}, "geometry": {"type": "Point", "coordinates": [46.918101537778746, -8.544250739123541]}}, {"type": "Feature", "properties": {"norad_id": 30416, "name": "FENGYUN 1C DEB", "group": "fengyun-1c-debris", "lat": -76.43511540818675, "lon": 49.80091771880497, "alt_km": 889.1632360641834, "timestamp": "2025-12-11T05:00:26.584955+00:00", "meta": {"OBJECT_NAME": "FENGYUN 1C DEB", "OBJECT_ID": "1999-025AEF", "EPOCH": "2025-12-10T19:07:00.502176", "MEAN_MOTION": 14.02626507, "ECCENTRICITY": 0.00554125, "INCLINATION": 98.8349, "RA_OF_ASC_NODE": 9.2648, "ARG_OF_PERICENTER": 195.2455, "MEAN_ANOMALY": 164.7044, "EPHEMERIS_TYPE": 0, "CLASSIFICATION_TYPE": "U", "NORAD_CAT_ID": 30416, "ELEMENT_SET_NO": 999, "REV_AT_EPOCH": 96597, "BSTAR": 0.00049167737, "MEAN_MOTION_DOT": 7.26e-06, "MEAN_MOTION_DDOT": 0}, "tle": {"line1": "1 30416U 99025AEF 25344.79653359  .00000726  00000+0  49168-3 0  9999", "line2": "2 30416  98.8349   9.2648 0055412 195.2455 164.7044 14.02626507965979"}}, "geometry": {"type": "Point", "coordinates": [49.80091771880497, -76.43511540818675]}}, {"type": "Feature", "properties": {"norad_id": 30417, "name": "FENGYUN 1C DEB", "group": "fengyun-1c-debris", "lat": 68.43383827452116, "lon": -47.540413081688875, "alt_km": 809.3145814467198, "timestamp": "2025-12-11T05:00:26.584965+00:00", "meta": {"OBJECT_NAME": "FENGYUN 1C DEB", "OBJECT_ID": "1999-025AEG", "EPOCH": "2025-12-10T22:01:40.620864", "MEAN_MOTION": 14.14659789, "ECCENTRICITY": 0.00643838, "INCLINATION": 98.6929, "RA_OF_ASC_NODE": 334.9494, "ARG_OF_PERICENTER": 125.1454, "MEAN_ANOMALY": 265.4771, "EPHEMERIS_TYPE": 0, "CLASSIFICATION_TYPE": "U", "NORAD_CAT_ID": 30417, "ELEMENT_SET_NO": 999, "REV_AT_EPOCH": 97363, "BSTAR": 0.00037555865, "MEAN_MOTION_DOT": 6.95e-06, "MEAN_MOTION_DDOT": 0}, "tle": {"line1": "1 30417U 99025AEG 25344.91783126  .00000695  00000+0  37556-3 0  9993", "line2": "2 30417  98.6929 334.9494 0064383 125.1454 265.4771 14.14659789973636"}}, "geometry": {"type": "Point", "coordinates": [-47.540413081688875, 68.43383827452116]}}, {"type": "Feature", "properties": {"norad_id": 30418, "name": "FENGYUN 1C DEB", "group": "fengyun-1c-debris", "lat": -8.301509034609241, "lon": -36.47445574521389, "alt_km": 590.1354708558083, "timestamp": "2025-12-11T05:00:26.584975+00:00", "meta": {"OBJECT_NAME": "FENGYUN 1C DEB", "OBJECT_ID": "1999-025AEH", "EPOCH": "2025-12-10T04:41:05.095104", "MEAN_MOTION": 14.84133543, "ECCENTRICITY": 0.01112386, "INCLINATION": 98.841, "RA_OF_ASC_NODE": 143.7046, "ARG_OF_PERICENTER": 123.678, "MEAN_ANOMALY": 51.898, "EPHEMERIS_TYPE": 0, "CLASSIFICATION_TYPE": "U", "NORAD_CAT_ID": 30418, "ELEMENT_SET_NO": 999, "REV_AT_EPOCH": 554, "BSTAR": 0.0013372361, "MEAN_MOTION_DOT": 0.00012416, "MEAN_MOTION_DDOT": 0}, "tle": {"line1": "1 30418U 99025AEH 25344.19519786  .00012416  00000+0  13372-2 0  9996", "line2": "2 30418  98.8410 143.7046 0111238 123.6780  51.8980 14.84133543  5547"}}, "geometry": {"type": "Point", "coordinates": [-36.47445574521389, -8.301509034609241]}}, {"type": "Feature", "properties": {"norad_id": 30419, "name": "FENGYUN 1C DEB", "group": "fengyun-1c-debris", "lat": -64.22800364091084, "lon": -48.36018302198278, "alt_km": 842.2637984939793, "timestamp": "2025-12-11T05:00:26.584985+00:00", "meta": {"OBJECT_NAME": "FENGYUN 1C DEB", "OBJECT_ID": "1999-025AEJ", "EPOCH": "2025-12-10T19:17:42.530208", "MEAN_MOTION": 14.18028815, "ECCENTRICITY": 0.00530669, "INCLINATION": 99.2402, "RA_OF_ASC_NODE": 291.5147, "ARG_OF_PERICENTER": 30.2819, "MEAN_ANOMALY": 359.8464, "EPHEMERIS_TYPE": 0, "CLASSIFICATION_TYPE": "U", "NORAD_CAT_ID": 30419, "ELEMENT_SET_NO": 999, "REV_AT_EPOCH": 97321, "BSTAR": 0.001288421, "MEAN_MOTION_DOT": 2.63e-05, "MEAN_MOTION_DDOT": 0}, "tle": {"line1": "1 30419U 99025AEJ 25344.80396447  .00002630  00000+0  12884-2 0  9996", "line2": "2 30419  99.2402 291.5147 0053066  30.2819 359.8464 14.18028815973216"}}, "geometry": {"type": "Point", "coordinates": [-48.36018302198278, -64.22800364091084]}}, {"type": "Feature", "properties": {"norad_id": 30432, "name": "FENGYUN 1C DEB", "group": "fengyun-1c-debris", "lat": 16.932697144624477, "lon": 66.74340286229919, "alt_km": 816.1081399514169, "timestamp": "2025-12-11T05:00:26.584995+00:00", "meta": {"OBJECT_NAME": "FENGYUN 1C DEB", "OBJECT_ID": "1999-025AET", "EPOCH": "2025-12-10T23:15:09.731232", "MEAN_MOTION": 14.40666077, "ECCENTRICITY": 0.00831347, "INCLINATION": 98.8349, "RA_OF_ASC_NODE": 243.7818, "ARG_OF_PERICENTER": 344.2251, "MEAN_ANOMALY": 15.6349, "EPHEMERIS_TYPE": 0, "CLASSIFICATION_TYPE": "U", "NORAD_CAT_ID": 30432, "ELEMENT_SET_NO": 999, "REV_AT_EPOCH": 98709, "BSTAR": 0.0011476168, "MEAN_MOTION_DOT": 3.769e-05, "MEAN_MOTION_DDOT": 0}, "tle": {"line1": "1 30432U 99025AET 25344.96886263  .00003769  00000+0  11476-2 0  9998", "line2": "2 30432  98.8349 243.7818 0083134 344.2251  15.6349 14.40666077987090"}}, "geometry": {"type": "Point", "coordinates": [66.74340286229919, 16.932697144624477]}}, {"type": "Feature", "properties": {"norad_id": 30434, "name": "FENGYUN 1C DEB", "group": "fengyun-1c-debris", "lat": -48.41148344924697, "lon": 141.78824527437615, "alt_km": 845.4133880220224, "timestamp": "2025-12-11T05:00:26.585005+00:00", "meta": {"OBJECT_NAME": "FENGYUN 1C DEB", "OBJECT_ID": "1999-025AEV", "EPOCH": "2025-12-10T11:22:16.932576", "MEAN_MOTION": 13.90647911, "ECCENTRICITY": 0.01207823, "INCLINATION": 98.9988, "RA_OF_ASC_NODE": 331.362, "ARG_OF_PERICENTER": 237.4216, "MEAN_ANOMALY": 275.0449, "EPHEMERIS_TYPE": 0, "CLASSIFICATION_TYPE": "U", "NORAD_CAT_ID": 30434, "ELEMENT_SET_NO": 999, "REV_AT_EPOCH": 95675, "BSTAR": 0.00047001157, "MEAN_MOTION_DOT": 5.78e-06, "MEAN_MOTION_DDOT": 0}, "tle": {"line1": "1 30434U 99025AEV 25344.47380709  .00000578  00000+0  47001-3 0  9999", "line2": "2 30434  98.9988 331.3620 0120782 237.4216 275.0449 13.90647911956754"}}, "geometry": {"type": "Point", "coordinates": [141.78824527437615, -48.41148344924697]}}]}